     2.01           GLONASS NAV DATA                        RINEX VERSION / TYPE
CCRINEXG V1.4 UX    CDDIS               02-JAN-21 18:33     PGM / RUN BY / DATE 
IGS BROADCAST EPHEMERIS FILE                                COMMENT             
teqc  2020Oct7      UNAVCO Archive Ops  20210102  4:12:     COMMENT             
  2021     1     1   -0.186264514923D-08                    CORR TO SYSTEM TIME 
    18                                                      LEAP SECONDS        
                                                            END OF HEADER       
 2 21  1  1  3 15  0.0 0.461009331047D-03 0.909494701773D-12 0.117000000000D+05
   -0.148140727539D+05-0.237637042999D+01-0.931322574616D-09 0.000000000000D+00
    0.108167983398D+05 0.484624862671D+00 0.000000000000D+00-0.400000000000D+01
    0.177290224609D+05-0.229132175446D+01-0.279396772385D-08 0.000000000000D+00
 3 21  1  1  3 15  0.0 0.283466652036D-04 0.909494701773D-12 0.108300000000D+05
    0.382078369141D+04-0.309842777252D+01 0.931322574616D-09 0.000000000000D+00
    0.104591821289D+05 0.491117477417D+00-0.186264514923D-08 0.500000000000D+01
    0.229871357422D+05 0.286959648132D+00-0.186264514923D-08 0.000000000000D+00
 4 21  1  1  3 15  0.0 0.680973753333D-04 0.181898940355D-11 0.108000000000D+05
    0.200140634766D+05-0.208862209320D+01 0.279396772385D-08 0.000000000000D+00
    0.403091113281D+04 0.200354576111D+00-0.372529029846D-08 0.600000000000D+01
    0.153184980469D+05 0.267870903015D+01 0.000000000000D+00 0.000000000000D+00
 5 21  1  1  3 15  0.0 0.639362260699D-04 0.909494701773D-12 0.108000000000D+05
    0.251076674805D+05 0.102663993835D+00 0.279396772385D-08 0.000000000000D+00
   -0.447583740234D+04-0.202744483948D+00-0.279396772385D-08 0.100000000000D+01
   -0.970228027344D+03 0.357430076599D+01 0.279396772385D-08 0.000000000000D+00
 6 21  1  1  3 15  0.0 0.190183520317D-03 0.909494701773D-12 0.108000000000D+05
    0.137063583984D+05 0.243023300171D+01 0.000000000000D+00 0.000000000000D+00
   -0.114924599609D+05-0.542605400085D+00-0.000000000000D+00-0.400000000000D+01
   -0.182141518555D+05 0.217039680481D+01 0.372529029846D-08 0.000000000000D+00
 7 21  1  1  3 15  0.0-0.420119613409D-04-0.000000000000D+00 0.108000000000D+05
   -0.439148486328D+04 0.310321044922D+01-0.931322574616D-09 0.000000000000D+00
   -0.103131303711D+05-0.488817214966D+00 0.186264514923D-08 0.500000000000D+01
   -0.228801445312D+05-0.379097938538D+00 0.186264514923D-08 0.000000000000D+00
 8 21  1  1  3 15  0.0-0.565871596336D-04-0.000000000000D+00 0.108000000000D+05
   -0.200378837891D+05 0.208248138428D+01-0.279396772385D-08 0.000000000000D+00
   -0.406361816406D+04-0.217361450195D+00 0.279396772385D-08 0.600000000000D+01
   -0.151900766602D+05-0.268248367310D+01-0.000000000000D+00 0.000000000000D+00
 9 21  1  1  3 15  0.0 0.161556527018D-04 0.181898940355D-11 0.108000000000D+05
    0.105414799805D+05-0.301733016968D+00 0.279396772385D-08 0.000000000000D+00
   -0.228059663086D+05 0.503937721252D+00-0.000000000000D+00-0.200000000000D+01
   -0.419306982422D+04-0.349272537231D+01 0.279396772385D-08 0.000000000000D+00
10 21  1  1  3 15  0.0-0.651804730296D-04 0.000000000000D+00 0.108000000000D+05
    0.190915283203D+04 0.438761711121D+00 0.465661287308D-08 0.000000000000D+00
   -0.223380444336D+05-0.162093925476D+01-0.000000000000D+00-0.700000000000D+01
    0.122294116211D+05-0.301981258392D+01 0.931322574616D-09 0.000000000000D+00
11 21  1  1  3 15  0.0 0.502355396748D-05-0.000000000000D+00 0.108000000000D+05
   -0.822347851562D+04 0.100990581512D+01 0.186264514923D-08 0.000000000000D+00
   -0.855653417969D+04-0.292152118683D+01-0.000000000000D+00 0.000000000000D+00
    0.225876708984D+05-0.739943504333D+00-0.186264514923D-08 0.000000000000D+00
12 21  1  1  3 15  0.0 0.192953273654D-03 0.363797880709D-11 0.117000000000D+05
   -0.134973603516D+05 0.999376296997D+00 0.000000000000D+00 0.000000000000D+00
    0.101569760742D+05-0.241733074188D+01 0.000000000000D+00-0.100000000000D+01
    0.191271298828D+05 0.199382686615D+01-0.279396772385D-08 0.000000000000D+00
13 21  1  1  3 15  0.0-0.487091019750D-04-0.000000000000D+00 0.108000000000D+05
   -0.105755122070D+05 0.363244056702D+00-0.279396772385D-08 0.000000000000D+00
    0.227394023438D+05-0.545779228210D+00 0.000000000000D+00-0.200000000000D+01
    0.463171289062D+04 0.349614334106D+01-0.279396772385D-08 0.000000000000D+00
14 21  1  1  3 15  0.0 0.593457370997D-04 0.000000000000D+00 0.108000000000D+05
   -0.148561865234D+04-0.510711669922D+00-0.372529029846D-08 0.000000000000D+00
    0.218892465820D+05 0.171193408966D+01 0.000000000000D+00-0.700000000000D+01
   -0.130094277344D+05 0.293560886383D+01-0.931322574616D-09 0.000000000000D+00
15 21  1  1  3 15  0.0 0.106102786958D-03-0.000000000000D+00 0.108000000000D+05
    0.835439697266D+04-0.106366920471D+01-0.279396772385D-08 0.000000000000D+00
    0.836757128906D+04 0.290870952606D+01 0.000000000000D+00 0.000000000000D+00
   -0.225827841797D+05 0.684295654297D+00 0.186264514923D-08 0.000000000000D+00
16 21  1  1  3 15  0.0-0.975187867880D-05 0.000000000000D+00 0.108000000000D+05
    0.134790019531D+05-0.914038658142D+00 0.000000000000D+00 0.000000000000D+00
   -0.113590883789D+05 0.235439491272D+01 0.000000000000D+00-0.100000000000D+01
   -0.185200952148D+05-0.209953975678D+01 0.372529029846D-08 0.000000000000D+00
17 21  1  1  3 15  0.0 0.387338921428D-03 0.272848410532D-11 0.108000000000D+05
    0.104105024414D+05-0.782176017761D+00-0.279396772385D-08 0.000000000000D+00
    0.206148745117D+05-0.127214717865D+01-0.931322574616D-09 0.400000000000D+01
   -0.107717016602D+05-0.318923568726D+01 0.000000000000D+00 0.000000000000D+00
18 21  1  1  3 15  0.0 0.616153702140D-04 0.909494701773D-12 0.108000000000D+05
    0.175786191406D+05 0.705226898193D+00-0.000000000000D+00 0.000000000000D+00
    0.174888144531D+05 0.503886222839D+00-0.279396772385D-08-0.300000000000D+01
    0.611684277344D+04-0.347483730316D+01 0.000000000000D+00 0.000000000000D+00
19 21  1  1  3 15  0.0-0.126038677990D-03-0.909494701773D-12 0.108000000000D+05
    0.154572763672D+05 0.172579288483D+01 0.279396772385D-08 0.000000000000D+00
    0.601453466797D+04 0.202571678162D+01-0.372529029846D-08 0.300000000000D+01
    0.193843081055D+05-0.200585460663D+01-0.000000000000D+00 0.000000000000D+00
20 21  1  1  3 15  0.0-0.430135987699D-03-0.000000000000D+00 0.108000000000D+05
    0.352853271484D+04 0.180078887939D+01 0.465661287308D-08 0.000000000000D+00
   -0.117749296875D+05 0.247979164123D+01-0.931322574616D-09 0.200000000000D+01
    0.223584482422D+05 0.102597713470D+01-0.000000000000D+00 0.000000000000D+00
21 21  1  1  3 15  0.0-0.177193433046D-03-0.272848410532D-11 0.108000000000D+05
   -0.111006303711D+05 0.672954559326D+00 0.186264514923D-08 0.000000000000D+00
   -0.207993764648D+05 0.117768669128D+01 0.931322574616D-09 0.400000000000D+01
    0.978227978516D+04 0.326739025116D+01-0.000000000000D+00 0.000000000000D+00
22 21  1  1  3 15  0.0-0.900486484170D-04-0.181898940355D-11 0.111600000000D+05
   -0.175962675781D+05-0.798890113831D+00 0.000000000000D+00 0.000000000000D+00
   -0.169124843750D+05-0.638574600220D+00 0.279396772385D-08-0.300000000000D+01
   -0.725973779297D+04 0.343522167206D+01 0.000000000000D+00 0.000000000000D+00
23 21  1  1  3 15  0.0 0.356514938176D-03 0.181898940355D-11 0.108000000000D+05
   -0.119922299805D+05-0.197100257874D+01-0.372529029846D-08 0.000000000000D+00
    0.109275976562D+04-0.237275409699D+01 0.279396772385D-08 0.300000000000D+01
   -0.224861611328D+05 0.935736656189D+00-0.000000000000D+00 0.000000000000D+00
24 21  1  1  3 15  0.0 0.261254608631D-04 0.909494701773D-12 0.108000000000D+05
   -0.315289990234D+04-0.180651092529D+01-0.372529029846D-08 0.000000000000D+00
    0.126559692383D+05-0.240261173248D+01 0.931322574616D-09 0.200000000000D+01
   -0.218941708984D+05-0.112872314453D+01 0.000000000000D+00 0.000000000000D+00
 1 21  1  1  3 45  0.0 0.728331506252D-04 0.000000000000D+00 0.130500000000D+05
   -0.239274487305D+05 0.109116268158D+01-0.279396772385D-08 0.000000000000D+00
    0.366464062500D+04-0.211712837219D+00 0.372529029846D-08 0.100000000000D+01
   -0.806728271484D+04-0.333340167999D+01-0.186264514923D-08 0.000000000000D+00
 2 21  1  1  3 45  0.0 0.461012125015D-03 0.909494701773D-12 0.135000000000D+05
   -0.184716513672D+05-0.166015529633D+01-0.186264514923D-08 0.000000000000D+00
    0.118599624023D+05 0.637014389038D+00 0.931322574616D-09-0.400000000000D+01
    0.129724233398D+05-0.295962905884D+01-0.279396772385D-08 0.000000000000D+00
 3 21  1  1  3 45  0.0 0.283485278487D-04 0.909494701773D-12 0.126300000000D+05
   -0.166427246094D+04-0.294651699066D+01 0.000000000000D+00 0.000000000000D+00
    0.117430122070D+05 0.921429634094D+00-0.931322574616D-09 0.500000000000D+01
    0.226117998047D+05-0.701471328735D+00-0.279396772385D-08 0.000000000000D+00
 4 21  1  1  3 45  0.0 0.681011006236D-04 0.181898940355D-11 0.126000000000D+05
    0.157728027344D+05-0.257931804657D+01 0.186264514923D-08 0.000000000000D+00
    0.480147802734D+04 0.673059463501D+00-0.372529029846D-08 0.600000000000D+01
    0.194869746094D+05 0.192296314239D+01-0.000000000000D+00 0.000000000000D+00
 5 21  1  1  3 45  0.0 0.639371573925D-04 0.909494701773D-12 0.126000000000D+05
    0.245022065430D+05-0.761322021484D+00 0.279396772385D-08 0.000000000000D+00
   -0.465720214844D+04 0.401639938355D-01-0.372529029846D-08 0.100000000000D+01
    0.541797119141D+04 0.347767829895D+01 0.186264514923D-08 0.000000000000D+00
 6 21  1  1  3 45  0.0 0.190185382962D-03 0.909494701773D-12 0.126000000000D+05
    0.174817475586D+05 0.173704242706D+01 0.931322574616D-09 0.000000000000D+00
   -0.126342705078D+05-0.689241409302D+00-0.931322574616D-09-0.400000000000D+01
   -0.136553452148D+05 0.286214256287D+01 0.372529029846D-08 0.000000000000D+00
